STARLINK-1228
1 15188C 20012L   21326.14687572  .00009071  00000-0  60789-3 0  3269
2 15188  53.0528 208.0906 0002177  71.3478 142.9747 15.06380707    15
